start=new Date('2021-10-24T00:00:00.000Z').valueOf();
sats=[{"MEAN_ELEMENT_THEORY":"SGP4","PERIAPSIS":"356.940","LAUNCH_DATE":"2021-09-14","REV_AT_EPOCH":"368","MEAN_MOTION_DOT":"-0.00056615","OBJECT_TYPE":"PAYLOAD","EPOCH":"2021-10-23T22:00:00.999936","TLE_LINE2":"2 49142  70.0015  15.0292 0003862 292.2209 233.5678 15.69775274  3683","PERIOD":"91.733","RA_OF_ASC_NODE":"15.0292","TLE_LINE1":"1 49142U 21082N   21296.91667824 -.00056615  00000-0 -47511-3 0  9992","SEMIMAJOR_AXIS":"6737.677","RCS_SIZE":"LARGE","ECCENTRICITY":"0.00038620","BSTAR":"-0.00047511000000","GP_ID":"188026513","REF_FRAME":"TEME","NORAD_CAT_ID":"49142","MEAN_ANOMALY":"233.5678","COUNTRY_CODE":"US","CENTER_NAME":"EARTH","INCLINATION":"70.0015","CLASSIFICATION_TYPE":"U","EPHEMERIS_TYPE":"0","OBJECT_NAME":"STARLINK-3042","ELEMENT_SET_NO":"999","FILE":"3181152","APOAPSIS":"362.144","ARG_OF_PERICENTER":"292.2209","SITE":"AFWTR","MEAN_MOTION":"15.69775274","MEAN_MOTION_DDOT":"0.0000000000000","DECAY_DATE":null,"OBJECT_ID":"2021-082N","TIME_SYSTEM":"UTC"},{"NORAD_CAT_ID":"49143","MEAN_ANOMALY":"238.2983","COUNTRY_CODE":"US","BSTAR":"-0.00671790000000","GP_ID":"188026073","REF_FRAME":"TEME","EPHEMERIS_TYPE":"0","CENTER_NAME":"EARTH","CLASSIFICATION_TYPE":"U","INCLINATION":"70.0005","SITE":"AFWTR","ARG_OF_PERICENTER":"289.5435","FILE":"3181152","APOAPSIS":"361.587","ELEMENT_SET_NO":"999","OBJECT_NAME":"STARLINK-3109","TIME_SYSTEM":"UTC","MEAN_MOTION_DDOT":"0.0000000000000","MEAN_MOTION":"15.70016576","OBJECT_ID":"2021-082P","DECAY_DATE":null,"LAUNCH_DATE":"2021-09-14","MEAN_ELEMENT_THEORY":"SGP4","PERIAPSIS":"356.116","REV_AT_EPOCH":"368","EPOCH":"2021-10-23T22:00:00.999936","TLE_LINE2":"2 49143  70.0005  15.0217 0004060 289.5435 238.2983 15.70016576  3687","OBJECT_TYPE":"PAYLOAD","MEAN_MOTION_DOT":"-0.00743244","PERIOD":"91.719","TLE_LINE1":"1 49143U 21082P   21296.91667824 -.00743244  00000-0 -67179-2 0  9995","ECCENTRICITY":"0.00040600","RCS_SIZE":"LARGE","SEMIMAJOR_AXIS":"6736.987","RA_OF_ASC_NODE":"15.0217"},{"CLASSIFICATION_TYPE":"U","INCLINATION":"69.9998","CENTER_NAME":"EARTH","EPHEMERIS_TYPE":"0","REF_FRAME":"TEME","GP_ID":"188025960","BSTAR":"0.00044816000000","COUNTRY_CODE":"US","MEAN_ANOMALY":"246.5499","NORAD_CAT_ID":"49144","OBJECT_ID":"2021-082Q","DECAY_DATE":null,"MEAN_MOTION_DDOT":"0.0000000000000","MEAN_MOTION":"15.69715961","TIME_SYSTEM":"UTC","ELEMENT_SET_NO":"999","FILE":"3181152","APOAPSIS":"362.238","OBJECT_NAME":"STARLINK-3100","SITE":"AFWTR","ARG_OF_PERICENTER":"285.3764","OBJECT_TYPE":"PAYLOAD","MEAN_MOTION_DOT":"0.00053559","TLE_LINE2":"2 49144  69.9998  15.0121 0003749 285.3764 246.5499 15.69715961  3688","EPOCH":"2021-10-23T22:00:00.999936","REV_AT_EPOCH":"368","LAUNCH_DATE":"2021-09-14","PERIAPSIS":"357.186","MEAN_ELEMENT_THEORY":"SGP4","RA_OF_ASC_NODE":"15.0121","ECCENTRICITY":"0.00037490","RCS_SIZE":"LARGE","SEMIMAJOR_AXIS":"6737.847","TLE_LINE1":"1 49144U 21082Q   21296.91667824  .00053559  00000-0  44816-3 0  9991","PERIOD":"91.736"},{"ARG_OF_PERICENTER":"290.1885","SITE":"AFWTR","OBJECT_NAME":"STARLINK-3119","APOAPSIS":"362.142","FILE":"3181152","ELEMENT_SET_NO":"999","TIME_SYSTEM":"UTC","DECAY_DATE":null,"OBJECT_ID":"2021-082R","MEAN_MOTION":"15.69756852","MEAN_MOTION_DDOT":"0.0000000000000","COUNTRY_CODE":"US","NORAD_CAT_ID":"49145","MEAN_ANOMALY":"246.1196","REF_FRAME":"TEME","GP_ID":"188026184","BSTAR":"-0.00021427000000","EPHEMERIS_TYPE":"0","INCLINATION":"69.9999","CLASSIFICATION_TYPE":"U","CENTER_NAME":"EARTH","PERIOD":"91.734","ECCENTRICITY":"0.00037800","RCS_SIZE":"LARGE","SEMIMAJOR_AXIS":"6737.730","TLE_LINE1":"1 49145U 21082R   21296.91667824 -.00025723  00000-0 -21427-3 0  9999","RA_OF_ASC_NODE":"15.0149","REV_AT_EPOCH":"368","PERIAPSIS":"357.048","MEAN_ELEMENT_THEORY":"SGP4","LAUNCH_DATE":"2021-09-14","TLE_LINE2":"2 49145  69.9999  15.0149 0003780 290.1885 246.1196 15.69756852  3687","EPOCH":"2021-10-23T22:00:00.999936","MEAN_MOTION_DOT":"-0.00025723","OBJECT_TYPE":"PAYLOAD"},{"BSTAR":"-0.00112510000000","GP_ID":"188026407","REF_FRAME":"TEME","MEAN_ANOMALY":"245.3795","NORAD_CAT_ID":"49146","COUNTRY_CODE":"US","CENTER_NAME":"EARTH","CLASSIFICATION_TYPE":"U","INCLINATION":"70.0011","EPHEMERIS_TYPE":"0","FILE":"3181152","APOAPSIS":"362.189","ELEMENT_SET_NO":"999","OBJECT_NAME":"STARLINK-3116","SITE":"AFWTR","ARG_OF_PERICENTER":"288.8654","MEAN_MOTION_DDOT":"0.0000000000000","MEAN_MOTION":"15.69807368","OBJECT_ID":"2021-082S","DECAY_DATE":null,"TIME_SYSTEM":"UTC","LAUNCH_DATE":"2021-09-14","PERIAPSIS":"356.711","MEAN_ELEMENT_THEORY":"SGP4","REV_AT_EPOCH":"368","OBJECT_TYPE":"PAYLOAD","MEAN_MOTION_DOT":"-0.00132764","EPOCH":"2021-10-23T22:00:00.999936","TLE_LINE2":"2 49146  70.0011  15.0185 0004065 288.8654 245.3795 15.69807368  3686","PERIOD":"91.731","RA_OF_ASC_NODE":"15.0185","TLE_LINE1":"1 49146U 21082S   21296.91667824 -.00132764  00000-0 -11251-2 0  9997","ECCENTRICITY":"0.00040650","RCS_SIZE":"LARGE","SEMIMAJOR_AXIS":"6737.585"},{"MEAN_MOTION":"15.69724746","MEAN_MOTION_DDOT":"0.0000000000000","DECAY_DATE":null,"OBJECT_ID":"2021-082T","TIME_SYSTEM":"UTC","OBJECT_NAME":"STARLINK-3071","FILE":"3181152","ELEMENT_SET_NO":"999","APOAPSIS":"362.136","ARG_OF_PERICENTER":"286.3003","SITE":"AFWTR","CENTER_NAME":"EARTH","INCLINATION":"69.9998","CLASSIFICATION_TYPE":"U","EPHEMERIS_TYPE":"0","BSTAR":"0.00031806000000","GP_ID":"188025740","REF_FRAME":"TEME","MEAN_ANOMALY":"243.4960","NORAD_CAT_ID":"49147","COUNTRY_CODE":"US","RA_OF_ASC_NODE":"15.0147","TLE_LINE1":"1 49147U 21082T   21296.91667824  .00037891  00000-0  31806-3 0  9990","SEMIMAJOR_AXIS":"6737.822","RCS_SIZE":"LARGE","ECCENTRICITY":"0.00036360","PERIOD":"91.736","MEAN_MOTION_DOT":"0.00037891","OBJECT_TYPE":"PAYLOAD","EPOCH":"2021-10-23T22:00:00.999936","TLE_LINE2":"2 49147  69.9998  15.0147 0003636 286.3003 243.4960 15.69724746  3681","MEAN_ELEMENT_THEORY":"SGP4","PERIAPSIS":"357.237","LAUNCH_DATE":"2021-09-14","REV_AT_EPOCH":"368"},{"LAUNCH_DATE":"2021-09-14","PERIAPSIS":"356.699","MEAN_ELEMENT_THEORY":"SGP4","REV_AT_EPOCH":"368","OBJECT_TYPE":"PAYLOAD","MEAN_MOTION_DOT":"-0.00435874","EPOCH":"2021-10-23T22:00:00.999936","TLE_LINE2":"2 49148  70.0004  15.0070 0003784 289.8376 250.7423 15.69877916  3686","PERIOD":"91.727","RA_OF_ASC_NODE":"15.0070","TLE_LINE1":"1 49148U 21082U   21296.91667824 -.00435874  00000-0 -38212-2 0  9993","RCS_SIZE":"LARGE","ECCENTRICITY":"0.00037840","SEMIMAJOR_AXIS":"6737.383","BSTAR":"-0.00382120000000","REF_FRAME":"TEME","GP_ID":"188026295","MEAN_ANOMALY":"250.7423","NORAD_CAT_ID":"49148","COUNTRY_CODE":"US","CENTER_NAME":"EARTH","CLASSIFICATION_TYPE":"U","INCLINATION":"70.0004","EPHEMERIS_TYPE":"0","FILE":"3181152","ELEMENT_SET_NO":"999","APOAPSIS":"361.798","OBJECT_NAME":"STARLINK-3048","ARG_OF_PERICENTER":"289.8376","SITE":"AFWTR","MEAN_MOTION_DDOT":"0.0000000000000","MEAN_MOTION":"15.69877916","OBJECT_ID":"2021-082U","DECAY_DATE":null,"TIME_SYSTEM":"UTC"},{"PERIOD":"91.735","TLE_LINE1":"1 49149U 21082V   21296.91667824 -.00024980  00000-0 -20809-3 0  9990","ECCENTRICITY":"0.00041360","RCS_SIZE":"LARGE","SEMIMAJOR_AXIS":"6737.761","RA_OF_ASC_NODE":"15.0141","MEAN_ELEMENT_THEORY":"SGP4","PERIAPSIS":"356.840","LAUNCH_DATE":"2021-09-14","REV_AT_EPOCH":"368","EPOCH":"2021-10-23T22:00:00.999936","TLE_LINE2":"2 49149  69.9998  15.0141 0004136 290.1615 248.3510 15.69745739  3685","MEAN_MOTION_DOT":"-0.00024980","OBJECT_TYPE":"PAYLOAD","ARG_OF_PERICENTER":"290.1615","SITE":"AFWTR","OBJECT_NAME":"STARLINK-3053","APOAPSIS":"362.413","FILE":"3181152","ELEMENT_SET_NO":"999","TIME_SYSTEM":"UTC","MEAN_MOTION":"15.69745739","MEAN_MOTION_DDOT":"0.0000000000000","DECAY_DATE":null,"OBJECT_ID":"2021-082V","MEAN_ANOMALY":"248.3510","NORAD_CAT_ID":"49149","COUNTRY_CODE":"US","BSTAR":"-0.00020809000000","REF_FRAME":"TEME","GP_ID":"188025851","EPHEMERIS_TYPE":"0","CENTER_NAME":"EARTH","INCLINATION":"69.9998","CLASSIFICATION_TYPE":"U"},{"OBJECT_TYPE":"PAYLOAD","MEAN_MOTION_DOT":"-0.00025204","TLE_LINE2":"2 49150  70.0004  15.0047 0003729 291.6668 253.1877 15.69778863  3688","EPOCH":"2021-10-23T22:00:00.999936","REV_AT_EPOCH":"368","LAUNCH_DATE":"2021-09-14","MEAN_ELEMENT_THEORY":"SGP4","PERIAPSIS":"357.019","RA_OF_ASC_NODE":"15.0047","ECCENTRICITY":"0.00037290","RCS_SIZE":"LARGE","SEMIMAJOR_AXIS":"6737.667","TLE_LINE1":"1 49150U 21082W   21296.91667824 -.00025204  00000-0 -20971-3 0  9992","PERIOD":"91.733","CLASSIFICATION_TYPE":"U","INCLINATION":"70.0004","CENTER_NAME":"EARTH","EPHEMERIS_TYPE":"0","REF_FRAME":"TEME","GP_ID":"188026514","BSTAR":"-0.00020971000000","COUNTRY_CODE":"US","NORAD_CAT_ID":"49150","MEAN_ANOMALY":"253.1877","OBJECT_ID":"2021-082W","DECAY_DATE":null,"MEAN_MOTION_DDOT":"0.0000000000000","MEAN_MOTION":"15.69778863","TIME_SYSTEM":"UTC","FILE":"3181152","APOAPSIS":"362.044","ELEMENT_SET_NO":"999","OBJECT_NAME":"STARLINK-3104","SITE":"AFWTR","ARG_OF_PERICENTER":"291.6668"},{"MEAN_MOTION_DDOT":"0.0000000000000","MEAN_MOTION":"15.69738494","OBJECT_ID":"2021-082X","DECAY_DATE":null,"TIME_SYSTEM":"UTC","APOAPSIS":"362.449","FILE":"3181152","ELEMENT_SET_NO":"999","OBJECT_NAME":"STARLINK-3102","SITE":"AFWTR","ARG_OF_PERICENTER":"289.3936","CENTER_NAME":"EARTH","CLASSIFICATION_TYPE":"U","INCLINATION":"70.0004","EPHEMERIS_TYPE":"0","BSTAR":"-0.00021490000000","REF_FRAME":"TEME","GP_ID":"188026074","MEAN_ANOMALY":"253.3692","NORAD_CAT_ID":"49151","COUNTRY_CODE":"US","RA_OF_ASC_NODE":"15.0071","TLE_LINE1":"1 49151U 21082X   21296.91667824 -.00025781  00000-0 -21490-3 0  9990","RCS_SIZE":"LARGE","SEMIMAJOR_AXIS":"6737.782","ECCENTRICITY":"0.00041590","PERIOD":"91.735","OBJECT_TYPE":"PAYLOAD","MEAN_MOTION_DOT":"-0.00025781","EPOCH":"2021-10-23T22:00:00.999936","TLE_LINE2":"2 49151  70.0004  15.0071 0004159 289.3936 253.3692 15.69738494  3689","LAUNCH_DATE":"2021-09-14","PERIAPSIS":"356.845","MEAN_ELEMENT_THEORY":"SGP4","REV_AT_EPOCH":"368"}];
